ONEWEB-0697             
1 61603U 24188K   25231.62353690 -.00000446  00000+0 -12949-2 0  9998
2 61603  87.8774  81.1787 0000950  67.5604 292.5625 13.11418010 44923
ONEWEB-0698             
1 61604U 24188L   25231.60150013 -.00000341  00000+0 -99875-3 0  9999
2 61604  87.8775  81.1965 0001551  45.5555 314.5699 13.11414186 44940
ONEWEB-0699             
1 61605U 24188M   25231.60339796  .00000424  00000+0  11784-2 0  9999
2 61605  87.8777  96.4044 0001245  64.2242 295.9014 13.10376370 43810
ONEWEB-0700             
1 61606U 24188N   25231.68141261  .00000440  00000+0  12234-2 0  9995
2 61606  87.8747  96.2796 0001081  93.3633 266.7618 13.10375802 42000
ONEWEB-0701             
1 61607U 24188P   25231.62164935  .00000609  00000+0  17093-2 0  9998
2 61607  87.8765  96.4074 0000998  58.8221 301.3004 13.10373214 43817
ONEWEB-0702             
1 61608U 24188Q   25231.57099763  .00000590  00000+0  16300-2 0  9998
2 61608  87.8707  81.1460 0000790  84.9460 275.1758 13.11416970 44957
ONEWEB-0704             
1 61609U 24188R   25231.68639576  .00000601  00000+0  16839-2 0  9993
2 61609  87.8793  96.3394 0000719  84.3293 275.7916 13.10375095 41956
ONEWEB-0705             
1 61610U 24188S   25231.61502197  .00000668  00000+0  18784-2 0  9990
2 61610  87.8768  96.3918 0001473 124.8199 235.3067 13.10373904 42109
