<?xml version="1.0" encoding="UTF-8"?>
<ndm xmlns:xsi="http://www.w3.org/2001/XMLSchema-instance" xsi:noNamespaceSchemaLocation="https://sanaregistry.org/r/ndmxml_unqualified/ndmxml-2.0.0-master-2.0.xsd">
<omm id="CCSDS_OMM_VERS" version="2.0">
<header><CREATION_DATE/><ORIGINATOR/></header><body><segment><metadata><OBJECT_NAME>ONEWEB-0697</OBJECT_NAME><OBJECT_ID>2024-188K</OBJECT_ID><CENTER_NAME>EARTH</CENTER_NAME><REF_FRAME>TEME</REF_FRAME><TIME_SYSTEM>UTC</TIME_SYSTEM><MEAN_ELEMENT_THEORY>SGP4</MEAN_ELEMENT_THEORY></metadata><data><meanElements><EPOCH>2025-08-19T14:57:53.588160</EPOCH><MEAN_MOTION>13.11418010</MEAN_MOTION><ECCENTRICITY>.000095</ECCENTRICITY><INCLINATION>87.8774</INCLINATION><RA_OF_ASC_NODE>81.1787</RA_OF_ASC_NODE><ARG_OF_PERICENTER>67.5604</ARG_OF_PERICENTER><MEAN_ANOMALY>292.5625</MEAN_ANOMALY></meanElements><tleParameters><EPHEMERIS_TYPE>0</EPHEMERIS_TYPE><CLASSIFICATION_TYPE>U</CLASSIFICATION_TYPE><NORAD_CAT_ID>61603</NORAD_CAT_ID><ELEMENT_SET_NO>999</ELEMENT_SET_NO><REV_AT_EPOCH>4492</REV_AT_EPOCH><BSTAR>-.12949E-2</BSTAR><MEAN_MOTION_DOT>-.446E-5</MEAN_MOTION_DOT><MEAN_MOTION_DDOT>0</MEAN_MOTION_DDOT></tleParameters></data></segment></body></omm>
<omm id="CCSDS_OMM_VERS" version="2.0">
<header><CREATION_DATE/><ORIGINATOR/></header><body><segment><metadata><OBJECT_NAME>ONEWEB-0698</OBJECT_NAME><OBJECT_ID>2024-188L</OBJECT_ID><CENTER_NAME>EARTH</CENTER_NAME><REF_FRAME>TEME</REF_FRAME><TIME_SYSTEM>UTC</TIME_SYSTEM><MEAN_ELEMENT_THEORY>SGP4</MEAN_ELEMENT_THEORY></metadata><data><meanElements><EPOCH>2025-08-19T14:26:09.611232</EPOCH><MEAN_MOTION>13.11414186</MEAN_MOTION><ECCENTRICITY>.0001551</ECCENTRICITY><INCLINATION>87.8775</INCLINATION><RA_OF_ASC_NODE>81.1965</RA_OF_ASC_NODE><ARG_OF_PERICENTER>45.5555</ARG_OF_PERICENTER><MEAN_ANOMALY>314.5699</MEAN_ANOMALY></meanElements><tleParameters><EPHEMERIS_TYPE>0</EPHEMERIS_TYPE><CLASSIFICATION_TYPE>U</CLASSIFICATION_TYPE><NORAD_CAT_ID>61604</NORAD_CAT_ID><ELEMENT_SET_NO>999</ELEMENT_SET_NO><REV_AT_EPOCH>4494</REV_AT_EPOCH><BSTAR>-.99875E-3</BSTAR><MEAN_MOTION_DOT>-.341E-5</MEAN_MOTION_DOT><MEAN_MOTION_DDOT>0</MEAN_MOTION_DDOT></tleParameters></data></segment></body></omm>
<omm id="CCSDS_OMM_VERS" version="2.0">
<header><CREATION_DATE/><ORIGINATOR/></header><body><segment><metadata><OBJECT_NAME>ONEWEB-0699</OBJECT_NAME><OBJECT_ID>2024-188M</OBJECT_ID><CENTER_NAME>EARTH</CENTER_NAME><REF_FRAME>TEME</REF_FRAME><TIME_SYSTEM>UTC</TIME_SYSTEM><MEAN_ELEMENT_THEORY>SGP4</MEAN_ELEMENT_THEORY></metadata><data><meanElements><EPOCH>2025-08-19T14:28:53.583744</EPOCH><MEAN_MOTION>13.10376370</MEAN_MOTION><ECCENTRICITY>.0001245</ECCENTRICITY><INCLINATION>87.8777</INCLINATION><RA_OF_ASC_NODE>96.4044</RA_OF_ASC_NODE><ARG_OF_PERICENTER>64.2242</ARG_OF_PERICENTER><MEAN_ANOMALY>295.9014</MEAN_ANOMALY></meanElements><tleParameters><EPHEMERIS_TYPE>0</EPHEMERIS_TYPE><CLASSIFICATION_TYPE>U</CLASSIFICATION_TYPE><NORAD_CAT_ID>61605</NORAD_CAT_ID><ELEMENT_SET_NO>999</ELEMENT_SET_NO><REV_AT_EPOCH>4381</REV_AT_EPOCH><BSTAR>.11784E-2</BSTAR><MEAN_MOTION_DOT>.424E-5</MEAN_MOTION_DOT><MEAN_MOTION_DDOT>0</MEAN_MOTION_DDOT></tleParameters></data></segment></body></omm>
<omm id="CCSDS_OMM_VERS" version="2.0">
<header><CREATION_DATE/><ORIGINATOR/></header><body><segment><metadata><OBJECT_NAME>ONEWEB-0700</OBJECT_NAME><OBJECT_ID>2024-188N</OBJECT_ID><CENTER_NAME>EARTH</CENTER_NAME><REF_FRAME>TEME</REF_FRAME><TIME_SYSTEM>UTC</TIME_SYSTEM><MEAN_ELEMENT_THEORY>SGP4</MEAN_ELEMENT_THEORY></metadata><data><meanElements><EPOCH>2025-08-19T16:21:14.049504</EPOCH><MEAN_MOTION>13.10375802</MEAN_MOTION><ECCENTRICITY>.0001081</ECCENTRICITY><INCLINATION>87.8747</INCLINATION><RA_OF_ASC_NODE>96.2796</RA_OF_ASC_NODE><ARG_OF_PERICENTER>93.3633</ARG_OF_PERICENTER><MEAN_ANOMALY>266.7618</MEAN_ANOMALY></meanElements><tleParameters><EPHEMERIS_TYPE>0</EPHEMERIS_TYPE><CLASSIFICATION_TYPE>U</CLASSIFICATION_TYPE><NORAD_CAT_ID>61606</NORAD_CAT_ID><ELEMENT_SET_NO>999</ELEMENT_SET_NO><REV_AT_EPOCH>4200</REV_AT_EPOCH><BSTAR>.12234E-2</BSTAR><MEAN_MOTION_DOT>.44E-5</MEAN_MOTION_DOT><MEAN_MOTION_DDOT>0</MEAN_MOTION_DDOT></tleParameters></data></segment></body></omm>
<omm id="CCSDS_OMM_VERS" version="2.0">
<header><CREATION_DATE/><ORIGINATOR/></header><body><segment><metadata><OBJECT_NAME>ONEWEB-0701</OBJECT_NAME><OBJECT_ID>2024-188P</OBJECT_ID><CENTER_NAME>EARTH</CENTER_NAME><REF_FRAME>TEME</REF_FRAME><TIME_SYSTEM>UTC</TIME_SYSTEM><MEAN_ELEMENT_THEORY>SGP4</MEAN_ELEMENT_THEORY></metadata><data><meanElements><EPOCH>2025-08-19T14:55:10.503840</EPOCH><MEAN_MOTION>13.10373214</MEAN_MOTION><ECCENTRICITY>.0000998</ECCENTRICITY><INCLINATION>87.8765</INCLINATION><RA_OF_ASC_NODE>96.4074</RA_OF_ASC_NODE><ARG_OF_PERICENTER>58.8221</ARG_OF_PERICENTER><MEAN_ANOMALY>301.3004</MEAN_ANOMALY></meanElements><tleParameters><EPHEMERIS_TYPE>0</EPHEMERIS_TYPE><CLASSIFICATION_TYPE>U</CLASSIFICATION_TYPE><NORAD_CAT_ID>61607</NORAD_CAT_ID><ELEMENT_SET_NO>999</ELEMENT_SET_NO><REV_AT_EPOCH>4381</REV_AT_EPOCH><BSTAR>.17093E-2</BSTAR><MEAN_MOTION_DOT>.609E-5</MEAN_MOTION_DOT><MEAN_MOTION_DDOT>0</MEAN_MOTION_DDOT></tleParameters></data></segment></body></omm>
<omm id="CCSDS_OMM_VERS" version="2.0">
<header><CREATION_DATE/><ORIGINATOR/></header><body><segment><metadata><OBJECT_NAME>ONEWEB-0702</OBJECT_NAME><OBJECT_ID>2024-188Q</OBJECT_ID><CENTER_NAME>EARTH</CENTER_NAME><REF_FRAME>TEME</REF_FRAME><TIME_SYSTEM>UTC</TIME_SYSTEM><MEAN_ELEMENT_THEORY>SGP4</MEAN_ELEMENT_THEORY></metadata><data><meanElements><EPOCH>2025-08-19T13:42:14.195232</EPOCH><MEAN_MOTION>13.11416970</MEAN_MOTION><ECCENTRICITY>.000079</ECCENTRICITY><INCLINATION>87.8707</INCLINATION><RA_OF_ASC_NODE>81.1460</RA_OF_ASC_NODE><ARG_OF_PERICENTER>84.9460</ARG_OF_PERICENTER><MEAN_ANOMALY>275.1758</MEAN_ANOMALY></meanElements><tleParameters><EPHEMERIS_TYPE>0</EPHEMERIS_TYPE><CLASSIFICATION_TYPE>U</CLASSIFICATION_TYPE><NORAD_CAT_ID>61608</NORAD_CAT_ID><ELEMENT_SET_NO>999</ELEMENT_SET_NO><REV_AT_EPOCH>4495</REV_AT_EPOCH><BSTAR>.163E-2</BSTAR><MEAN_MOTION_DOT>.59E-5</MEAN_MOTION_DOT><MEAN_MOTION_DDOT>0</MEAN_MOTION_DDOT></tleParameters></data></segment></body></omm>
<omm id="CCSDS_OMM_VERS" version="2.0">
<header><CREATION_DATE/><ORIGINATOR/></header><body><segment><metadata><OBJECT_NAME>ONEWEB-0704</OBJECT_NAME><OBJECT_ID>2024-188R</OBJECT_ID><CENTER_NAME>EARTH</CENTER_NAME><REF_FRAME>TEME</REF_FRAME><TIME_SYSTEM>UTC</TIME_SYSTEM><MEAN_ELEMENT_THEORY>SGP4</MEAN_ELEMENT_THEORY></metadata><data><meanElements><EPOCH>2025-08-19T16:28:24.593664</EPOCH><MEAN_MOTION>13.10375095</MEAN_MOTION><ECCENTRICITY>.0000719</ECCENTRICITY><INCLINATION>87.8793</INCLINATION><RA_OF_ASC_NODE>96.3394</RA_OF_ASC_NODE><ARG_OF_PERICENTER>84.3293</ARG_OF_PERICENTER><MEAN_ANOMALY>275.7916</MEAN_ANOMALY></meanElements><tleParameters><EPHEMERIS_TYPE>0</EPHEMERIS_TYPE><CLASSIFICATION_TYPE>U</CLASSIFICATION_TYPE><NORAD_CAT_ID>61609</NORAD_CAT_ID><ELEMENT_SET_NO>999</ELEMENT_SET_NO><REV_AT_EPOCH>4195</REV_AT_EPOCH><BSTAR>.16839E-2</BSTAR><MEAN_MOTION_DOT>.601E-5</MEAN_MOTION_DOT><MEAN_MOTION_DDOT>0</MEAN_MOTION_DDOT></tleParameters></data></segment></body></omm>
<omm id="CCSDS_OMM_VERS" version="2.0">
<header><CREATION_DATE/><ORIGINATOR/></header><body><segment><metadata><OBJECT_NAME>ONEWEB-0705</OBJECT_NAME><OBJECT_ID>2024-188S</OBJECT_ID><CENTER_NAME>EARTH</CENTER_NAME><REF_FRAME>TEME</REF_FRAME><TIME_SYSTEM>UTC</TIME_SYSTEM><MEAN_ELEMENT_THEORY>SGP4</MEAN_ELEMENT_THEORY></metadata><data><meanElements><EPOCH>2025-08-19T14:45:37.898208</EPOCH><MEAN_MOTION>13.10373904</MEAN_MOTION><ECCENTRICITY>.0001473</ECCENTRICITY><INCLINATION>87.8768</INCLINATION><RA_OF_ASC_NODE>96.3918</RA_OF_ASC_NODE><ARG_OF_PERICENTER>124.8199</ARG_OF_PERICENTER><MEAN_ANOMALY>235.3067</MEAN_ANOMALY></meanElements><tleParameters><EPHEMERIS_TYPE>0</EPHEMERIS_TYPE><CLASSIFICATION_TYPE>U</CLASSIFICATION_TYPE><NORAD_CAT_ID>61610</NORAD_CAT_ID><ELEMENT_SET_NO>999</ELEMENT_SET_NO><REV_AT_EPOCH>4210</REV_AT_EPOCH><BSTAR>.18784E-2</BSTAR><MEAN_MOTION_DOT>.668E-5</MEAN_MOTION_DOT><MEAN_MOTION_DDOT>0</MEAN_MOTION_DDOT></tleParameters></data></segment></body></omm>

</ndm>
